YUXING-3 06             
1 68199U 26052B   26078.86248052  .00001989  00000+0  12621-3 0  9997
2 68199  97.5385 155.0553 0011571 253.3029 106.6930 15.09990679   566
2026-052C               
1 68200U 26052C   26078.79588706 -.00000268  00000+0 -12504-4 0  9997
2 68200  97.5376 154.9921 0011257 255.3905 104.6076 15.10119523   542
2026-052D               
1 68201U 26052D   26078.86180597  .00005074  00000+0  31342-3 0  9990
2 68201  97.5387 155.0543 0010340 252.1723 107.8379 15.10281811   565
2026-052E               
1 68202U 26052E   26078.86179436  .00004536  00000+0  28059-3 0  9994
2 68202  97.5385 155.0553 0010221 256.5486 103.4605 15.10284028   564
2026-052F               
1 68203U 26052F   26078.86118976  .00005193  00000+0  31847-3 0  9996
2 68203  97.5375 155.0611 0009413 248.1713 111.8515 15.10537360   563
2026-052G               
1 68204U 26052G   26078.86106758  .00005377  00000+0  32922-3 0  9991
2 68204  97.5385 155.0552 0009052 251.4122 108.6125 15.10588355   560
KZ-11 R/B               
1 68205U 26052H   26078.83309637  .00025579  17638-5  38177-3 0  9995
2 68205  97.3430 155.0496 0549171   1.1929 359.0446 14.66646503   549
2026-052J               
1 68206U 26052J   26078.83294524  .00047708  20150-5  70037-3 0  9996
2 68206  97.3436 155.0493 0548746   1.2757 358.9704 14.66874489   541
TEN-KOH 2               
1 68261U 25241B   26078.85869414  .00007931  00000+0  35072-3 0  9994
2 68261  51.6349  24.5040 0004458 190.4564 169.6321 15.22562093  1293
