[{"OBJECT_NAME":"YUXING-3 06","OBJECT_ID":"2026-052B","EPOCH":"2026-03-19T20:41:58.316928","MEAN_MOTION":15.09990679,"ECCENTRICITY":0.0011571,"INCLINATION":97.5385,"RA_OF_ASC_NODE":155.0553,"ARG_OF_PERICENTER":253.3029,"MEAN_ANOMALY":106.693,"EPHEMERIS_TYPE":0,"CLASSIFICATION_TYPE":"U","NORAD_CAT_ID":68199,"ELEMENT_SET_NO":999,"REV_AT_EPOCH":56,"BSTAR":0.00012621,"MEAN_MOTION_DOT":1.989e-5,"MEAN_MOTION_DDOT":0},{"OBJECT_NAME":"2026-052C","OBJECT_ID":"2026-052C","EPOCH":"2026-03-19T19:06:04.641984","MEAN_MOTION":15.10119523,"ECCENTRICITY":0.0011257,"INCLINATION":97.5376,"RA_OF_ASC_NODE":154.9921,"ARG_OF_PERICENTER":255.3905,"MEAN_ANOMALY":104.6076,"EPHEMERIS_TYPE":0,"CLASSIFICATION_TYPE":"U","NORAD_CAT_ID":68200,"ELEMENT_SET_NO":999,"REV_AT_EPOCH":54,"BSTAR":-1.2504e-5,"MEAN_MOTION_DOT":-2.68e-6,"MEAN_MOTION_DDOT":0},{"OBJECT_NAME":"2026-052D","OBJECT_ID":"2026-052D","EPOCH":"2026-03-19T20:41:00.035808","MEAN_MOTION":15.10281811,"ECCENTRICITY":0.001034,"INCLINATION":97.5387,"RA_OF_ASC_NODE":155.0543,"ARG_OF_PERICENTER":252.1723,"MEAN_ANOMALY":107.8379,"EPHEMERIS_TYPE":0,"CLASSIFICATION_TYPE":"U","NORAD_CAT_ID":68201,"ELEMENT_SET_NO":999,"REV_AT_EPOCH":56,"BSTAR":0.00031342,"MEAN_MOTION_DOT":5.074e-5,"MEAN_MOTION_DDOT":0},{"OBJECT_NAME":"2026-052E","OBJECT_ID":"2026-052E","EPOCH":"2026-03-19T20:40:59.032704","MEAN_MOTION":15.10284028,"ECCENTRICITY":0.0010221,"INCLINATION":97.5385,"RA_OF_ASC_NODE":155.0553,"ARG_OF_PERICENTER":256.5486,"MEAN_ANOMALY":103.4605,"EPHEMERIS_TYPE":0,"CLASSIFICATION_TYPE":"U","NORAD_CAT_ID":68202,"ELEMENT_SET_NO":999,"REV_AT_EPOCH":56,"BSTAR":0.00028059,"MEAN_MOTION_DOT":4.536e-5,"MEAN_MOTION_DDOT":0},{"OBJECT_NAME":"2026-052F","OBJECT_ID":"2026-052F","EPOCH":"2026-03-19T20:40:06.795264","MEAN_MOTION":15.1053736,"ECCENTRICITY":0.0009413,"INCLINATION":97.5375,"RA_OF_ASC_NODE":155.0611,"ARG_OF_PERICENTER":248.1713,"MEAN_ANOMALY":111.8515,"EPHEMERIS_TYPE":0,"CLASSIFICATION_TYPE":"U","NORAD_CAT_ID":68203,"ELEMENT_SET_NO":999,"REV_AT_EPOCH":56,"BSTAR":0.00031847,"MEAN_MOTION_DOT":5.193e-5,"MEAN_MOTION_DDOT":0},{"OBJECT_NAME":"2026-052G","OBJECT_ID":"2026-052G","EPOCH":"2026-03-19T20:39:56.238912","MEAN_MOTION":15.10588355,"ECCENTRICITY":0.0009052,"INCLINATION":97.5385,"RA_OF_ASC_NODE":155.0552,"ARG_OF_PERICENTER":251.4122,"MEAN_ANOMALY":108.6125,"EPHEMERIS_TYPE":0,"CLASSIFICATION_TYPE":"U","NORAD_CAT_ID":68204,"ELEMENT_SET_NO":999,"REV_AT_EPOCH":56,"BSTAR":0.00032922,"MEAN_MOTION_DOT":5.377e-5,"MEAN_MOTION_DDOT":0},{"OBJECT_NAME":"KZ-11 R/B","OBJECT_ID":"2026-052H","EPOCH":"2026-03-19T19:59:39.526368","MEAN_MOTION":14.66646503,"ECCENTRICITY":0.0549171,"INCLINATION":97.343,"RA_OF_ASC_NODE":155.0496,"ARG_OF_PERICENTER":1.1929,"MEAN_ANOMALY":359.0446,"EPHEMERIS_TYPE":0,"CLASSIFICATION_TYPE":"U","NORAD_CAT_ID":68205,"ELEMENT_SET_NO":999,"REV_AT_EPOCH":54,"BSTAR":0.00038177,"MEAN_MOTION_DOT":0.00025579,"MEAN_MOTION_DDOT":1.7638e-6},{"OBJECT_NAME":"2026-052J","OBJECT_ID":"2026-052J","EPOCH":"2026-03-19T19:59:26.468736","MEAN_MOTION":14.66874489,"ECCENTRICITY":0.0548746,"INCLINATION":97.3436,"RA_OF_ASC_NODE":155.0493,"ARG_OF_PERICENTER":1.2757,"MEAN_ANOMALY":358.9704,"EPHEMERIS_TYPE":0,"CLASSIFICATION_TYPE":"U","NORAD_CAT_ID":68206,"ELEMENT_SET_NO":999,"REV_AT_EPOCH":54,"BSTAR":0.00070037,"MEAN_MOTION_DOT":0.00047708,"MEAN_MOTION_DDOT":2.015e-6},{"OBJECT_NAME":"TEN-KOH 2","OBJECT_ID":"2025-241B","EPOCH":"2026-03-19T20:36:31.173696","MEAN_MOTION":15.22562093,"ECCENTRICITY":0.0004458,"INCLINATION":51.6349,"RA_OF_ASC_NODE":24.504,"ARG_OF_PERICENTER":190.4564,"MEAN_ANOMALY":169.6321,"EPHEMERIS_TYPE":0,"CLASSIFICATION_TYPE":"U","NORAD_CAT_ID":68261,"ELEMENT_SET_NO":999,"REV_AT_EPOCH":129,"BSTAR":0.00035072,"MEAN_MOTION_DOT":7.931e-5,"MEAN_MOTION_DDOT":0}]
